{
  "type": "FeatureCollection",
  "features": [
    {
      "type": "Feature",
      "properties": {
        "norad_id": 66466,
        "name": "STARLINK-35388",
        "group": "last-30-days",
        "lat": -12.846570114369065,
        "lon": -47.485704394417134,
        "alt_km": 404.97506778699426,
        "timestamp": "2025-12-04T15:47:52.868862+00:00",
        "meta_object_name": "STARLINK-35388",
        "meta_object_id": "2025-262L",
        "meta_epoch": "2025-12-04T08:00:01.999872",
        "meta_mean_motion": 15.55859936,
        "meta_eccentricity": 0.00012637,
        "meta_inclination": 42.9991,
        "meta_ra_of_asc_node": 120.2618,
        "meta_arg_of_pericenter": 267.5225,
        "meta_mean_anomaly": 270.393,
        "meta_ephemeris_type": 0,
        "meta_classification_type": "U",
        "meta_norad_cat_id": 66466,
        "meta_element_set_no": 999,
        "meta_rev_at_epoch": 428,
        "meta_bstar": -0.033982219,
        "meta_mean_motion_dot": -0.02143131,
        "meta_mean_motion_ddot": 0,
        "tle_line1": "1 66466U 25262L   25338.33335648 -.02143131  00000+0 -33982-1 0  9993",
        "tle_line2": "2 66466  42.9991 120.2618 0001263 267.5225 270.3930 15.55859936  4289"
      },
      "geometry": {
        "type": "Point",
        "coordinates": [
          -47.485704394417134,
          -12.846570114369065
        ]
      }
    },
    {
      "type": "Feature",
      "properties": {
        "norad_id": 66467,
        "name": "STARLINK-35682",
        "group": "last-30-days",
        "lat": -10.299242293075656,
        "lon": -50.39579195475742,
        "alt_km": 404.6888516724093,
        "timestamp": "2025-12-04T15:47:52.868872+00:00",
        "meta_object_name": "STARLINK-35682",
        "meta_object_id": "2025-262M",
        "meta_epoch": "2025-12-04T08:00:01.999872",
        "meta_mean_motion": 15.55857452,
        "meta_eccentricity": 0.00011845,
        "meta_inclination": 42.9993,
        "meta_ra_of_asc_node": 120.2725,
        "meta_arg_of_pericenter": 262.3513,
        "meta_mean_anomaly": 271.7325,
        "meta_ephemeris_type": 0,
        "meta_classification_type": "U",
        "meta_norad_cat_id": 66467,
        "meta_element_set_no": 999,
        "meta_rev_at_epoch": 428,
        "meta_bstar": -0.033931559,
        "meta_mean_motion_dot": -0.02140066,
        "meta_mean_motion_ddot": 0,
        "tle_line1": "1 66467U 25262M   25338.33335648 -.02140066  00000+0 -33932-1 0  9993",
        "tle_line2": "2 66467  42.9993 120.2725 0001184 262.3513 271.7325 15.55857452  4280"
      },
      "geometry": {
        "type": "Point",
        "coordinates": [
          -50.39579195475742,
          -10.299242293075656
        ]
      }
    },
    {
      "type": "Feature",
      "properties": {
        "norad_id": 66468,
        "name": "STARLINK-35331",
        "group": "last-30-days",
        "lat": -14.10880352269307,
        "lon": -46.0075549223339,
        "alt_km": 405.12612419917514,
        "timestamp": "2025-12-04T15:47:52.868883+00:00",
        "meta_object_name": "STARLINK-35331",
        "meta_object_id": "2025-262N",
        "meta_epoch": "2025-12-04T08:00:01.999872",
        "meta_mean_motion": 15.55859764,
        "meta_eccentricity": 0.0001234,
        "meta_inclination": 42.9992,
        "meta_ra_of_asc_node": 120.2576,
        "meta_arg_of_pericenter": 270.2147,
        "meta_mean_anomaly": 269.6168,
        "meta_ephemeris_type": 0,
        "meta_classification_type": "U",
        "meta_norad_cat_id": 66468,
        "meta_element_set_no": 999,
        "meta_rev_at_epoch": 428,
        "meta_bstar": -0.033949832,
        "meta_mean_motion_dot": -0.02141287,
        "meta_mean_motion_ddot": 0,
        "tle_line1": "1 66468U 25262N   25338.33335648 -.02141287  00000+0 -33950-1 0  9990",
        "tle_line2": "2 66468  42.9992 120.2576 0001234 270.2147 269.6168 15.55859764  4280"
      },
      "geometry": {
        "type": "Point",
        "coordinates": [
          -46.0075549223339,
          -14.10880352269307
        ]
      }
    },
    {
      "type": "Feature",
      "properties": {
        "norad_id": 66469,
        "name": "STARLINK-35451",
        "group": "last-30-days",
        "lat": -17.837510763848947,
        "lon": -41.46937263999249,
        "alt_km": 405.4177645063519,
        "timestamp": "2025-12-04T15:47:52.868893+00:00",
        "meta_object_name": "STARLINK-35451",
        "meta_object_id": "2025-262P",
        "meta_epoch": "2025-12-04T08:00:01.999872",
        "meta_mean_motion": 15.55860171,
        "meta_eccentricity": 0.00011694,
        "meta_inclination": 42.9996,
        "meta_ra_of_asc_node": 120.2426,
        "meta_arg_of_pericenter": 270.7917,
        "meta_mean_anomaly": 274.7913,
        "meta_ephemeris_type": 0,
        "meta_classification_type": "U",
        "meta_norad_cat_id": 66469,
        "meta_element_set_no": 999,
        "meta_rev_at_epoch": 428,
        "meta_bstar": -0.033977841,
        "meta_mean_motion_dot": -0.02142838,
        "meta_mean_motion_ddot": 0,
        "tle_line1": "1 66469U 25262P   25338.33335648 -.02142838  00000+0 -33978-1 0  9994",
        "tle_line2": "2 66469  42.9996 120.2426 0001169 270.7917 274.7913 15.55860171  4285"
      },
      "geometry": {
        "type": "Point",
        "coordinates": [
          -41.46937263999249,
          -17.837510763848947
        ]
      }
    },
    {
      "type": "Feature",
      "properties": {
        "norad_id": 66470,
        "name": "STARLINK-35655",
        "group": "last-30-days",
        "lat": -15.361844873848815,
        "lon": -44.513055513079195,
        "alt_km": 405.206562299486,
        "timestamp": "2025-12-04T15:47:52.868908+00:00",
        "meta_object_name": "STARLINK-35655",
        "meta_object_id": "2025-262Q",
        "meta_epoch": "2025-12-04T08:00:01.999872",
        "meta_mean_motion": 15.5586015,
        "meta_eccentricity": 0.00012287,
        "meta_inclination": 42.9994,
        "meta_ra_of_asc_node": 120.2534,
        "meta_arg_of_pericenter": 269.5952,
        "meta_mean_anomaly": 272.1526,
        "meta_ephemeris_type": 0,
        "meta_classification_type": "U",
        "meta_norad_cat_id": 66470,
        "meta_element_set_no": 999,
        "meta_rev_at_epoch": 428,
        "meta_bstar": -0.033957503,
        "meta_mean_motion_dot": -0.02141739,
        "meta_mean_motion_ddot": 0,
        "tle_line1": "1 66470U 25262Q   25338.33335648 -.02141739  00000+0 -33958-1 0  9993",
        "tle_line2": "2 66470  42.9994 120.2534 0001228 269.5952 272.1526 15.55860150  4285"
      },
      "geometry": {
        "type": "Point",
        "coordinates": [
          -44.513055513079195,
          -15.361844873848815
        ]
      }
    },
    {
      "type": "Feature",
      "properties": {
        "norad_id": 66471,
        "name": "STARLINK-35569",
        "group": "last-30-days",
        "lat": -16.606161486422533,
        "lon": -42.99949443360635,
        "alt_km": 405.25783027817397,
        "timestamp": "2025-12-04T15:47:52.868919+00:00",
        "meta_object_name": "STARLINK-35569",
        "meta_object_id": "2025-262R",
        "meta_epoch": "2025-12-04T08:00:01.999872",
        "meta_mean_motion": 15.55858988,
        "meta_eccentricity": 0.00011858,
        "meta_inclination": 42.9993,
        "meta_ra_of_asc_node": 120.2483,
        "meta_arg_of_pericenter": 266.7814,
        "meta_mean_anomaly": 276.8861,
        "meta_ephemeris_type": 0,
        "meta_classification_type": "U",
        "meta_norad_cat_id": 66471,
        "meta_element_set_no": 999,
        "meta_rev_at_epoch": 428,
        "meta_bstar": -0.033966241,
        "meta_mean_motion_dot": -0.02142117,
        "meta_mean_motion_ddot": 0,
        "tle_line1": "1 66471U 25262R   25338.33335648 -.02142117  00000+0 -33966-1 0  9994",
        "tle_line2": "2 66471  42.9993 120.2483 0001185 266.7814 276.8861 15.55858988  4285"
      },
      "geometry": {
        "type": "Point",
        "coordinates": [
          -42.99949443360635,
          -16.606161486422533
        ]
      }
    },
    {
      "type": "Feature",
      "properties": {
        "norad_id": 66472,
        "name": "STARLINK-35567",
        "group": "last-30-days",
        "lat": -19.05738209170584,
        "lon": -39.91503625120235,
        "alt_km": 405.429232488209,
        "timestamp": "2025-12-04T15:47:52.868929+00:00",
        "meta_object_name": "STARLINK-35567",
        "meta_object_id": "2025-262S",
        "meta_epoch": "2025-12-04T08:00:01.999872",
        "meta_mean_motion": 15.55859633,
        "meta_eccentricity": 0.00011942,
        "meta_inclination": 42.9993,
        "meta_ra_of_asc_node": 120.2385,
        "meta_arg_of_pericenter": 267.3449,
        "meta_mean_anomaly": 280.1559,
        "meta_ephemeris_type": 0,
        "meta_classification_type": "U",
        "meta_norad_cat_id": 66472,
        "meta_element_set_no": 999,
        "meta_rev_at_epoch": 428,
        "meta_bstar": -0.033972883,
        "meta_mean_motion_dot": -0.0214254,
        "meta_mean_motion_ddot": 0,
        "tle_line1": "1 66472U 25262S   25338.33335648 -.02142540  00000+0 -33973-1 0  9993",
        "tle_line2": "2 66472  42.9993 120.2385 0001194 267.3449 280.1559 15.55859633  4288"
      },
      "geometry": {
        "type": "Point",
        "coordinates": [
          -39.91503625120235,
          -19.05738209170584
        ]
      }
    }
  ]
}